[{"OBJECT_NAME":"TIANMU-1 10","OBJECT_ID":"2023-101D","EPOCH":"2026-03-09T23:06:46.939392","MEAN_MOTION":15.2921896,"ECCENTRICITY":0.00069292,"INCLINATION":97.2749,"RA_OF_ASC_NODE":122.1027,"ARG_OF_PERICENTER":133.6162,"MEAN_ANOMALY":226.5654,"EPHEMERIS_TYPE":0,"CLASSIFICATION_TYPE":"U","NORAD_CAT_ID":57402,"ELEMENT_SET_NO":999,"REV_AT_EPOCH":14647,"BSTAR":0.00032238884,"MEAN_MOTION_DOT":9.075e-5,"MEAN_MOTION_DDOT":0},{"OBJECT_NAME":"STARLINK-35900","OBJECT_ID":"2025-283J","EPOCH":"2026-03-09T04:12:37.717920","MEAN_MOTION":15.30183452,"ECCENTRICITY":0.00012197,"INCLINATION":53.1612,"RA_OF_ASC_NODE":26.6843,"ARG_OF_PERICENTER":73.9111,"MEAN_ANOMALY":286.2024,"EPHEMERIS_TYPE":0,"CLASSIFICATION_TYPE":"U","NORAD_CAT_ID":66886,"ELEMENT_SET_NO":999,"REV_AT_EPOCH":1576,"BSTAR":0.0010055323,"MEAN_MOTION_DOT":0.00029525,"MEAN_MOTION_DDOT":0}]
